{
  "type": "FeatureCollection",
  "features": [
    {
      "type": "Feature",
      "properties": {
        "norad_id": 28054,
        "name": "DMSP 5D-3 F16 (USA 172)",
        "group": "weather",
        "lat": -5.330440581993196,
        "lon": 0.4284249983181932,
        "alt_km": 843.271490651261,
        "timestamp": "2025-12-08T03:50:06.648385+00:00",
        "meta_object_name": "DMSP 5D-3 F16 (USA 172)",
        "meta_object_id": "2003-048A",
        "meta_epoch": "2025-12-07T07:32:12.851232",
        "meta_mean_motion": 14.14421342,
        "meta_eccentricity": 0.00067178,
        "meta_inclination": 99.0049,
        "meta_ra_of_asc_node": 358.7283,
        "meta_arg_of_pericenter": 337.603,
        "meta_mean_anomaly": 32.9363,
        "meta_ephemeris_type": 0,
        "meta_classification_type": "U",
        "meta_norad_cat_id": 28054,
        "meta_element_set_no": 999,
        "meta_rev_at_epoch": 14236,
        "meta_bstar": 0.00016497167,
        "meta_mean_motion_dot": 2.7e-06,
        "meta_mean_motion_ddot": 0,
        "tle_line1": "1 28054U 03048A   25341.31403763  .00000270  00000+0  16497-3 0  9994",
        "tle_line2": "2 28054  99.0049 358.7283 0006717 337.6030  32.9363 14.14421342142369"
      },
      "geometry": {
        "type": "Point",
        "coordinates": [
          0.4284249983181932,
          -5.330440581993196
        ]
      }
    },
    {
      "type": "Feature",
      "properties": {
        "norad_id": 28912,
        "name": "METEOSAT-9 (MSG-2)",
        "group": "weather",
        "lat": 7.369956699095173,
        "lon": -179.3906886982819,
        "alt_km": 35777.337737928174,
        "timestamp": "2025-12-08T03:50:06.648434+00:00",
        "meta_object_name": "METEOSAT-9 (MSG-2)",
        "meta_object_id": "2005-049B",
        "meta_epoch": "2025-12-06T20:43:46.094016",
        "meta_mean_motion": 1.0027315,
        "meta_eccentricity": 0.00039617,
        "meta_inclination": 8.926,
        "meta_ra_of_asc_node": 56.0299,
        "meta_arg_of_pericenter": 188.459,
        "meta_mean_anomaly": 187.9596,
        "meta_ephemeris_type": 0,
        "meta_classification_type": "U",
        "meta_norad_cat_id": 28912,
        "meta_element_set_no": 999,
        "meta_rev_at_epoch": 507,
        "meta_bstar": 0,
        "meta_mean_motion_dot": 1.25e-06,
        "meta_mean_motion_ddot": 0,
        "tle_line1": "1 28912U 05049B   25340.86372794  .00000125  00000+0  00000+0 0  9996",
        "tle_line2": "2 28912   8.9260  56.0299 0003961 188.4590 187.9596  1.00273150  5070"
      },
      "geometry": {
        "type": "Point",
        "coordinates": [
          -179.3906886982819,
          7.369956699095173
        ]
      }
    },
    {
      "type": "Feature",
      "properties": {
        "norad_id": 29522,
        "name": "DMSP 5D-3 F17 (USA 191)",
        "group": "weather",
        "lat": -70.88309348606164,
        "lon": 13.989805976506036,
        "alt_km": 845.3786862662555,
        "timestamp": "2025-12-08T03:50:06.648452+00:00",
        "meta_object_name": "DMSP 5D-3 F17 (USA 191)",
        "meta_object_id": "2006-050A",
        "meta_epoch": "2025-12-07T06:06:58.268448",
        "meta_mean_motion": 14.14916111,
        "meta_eccentricity": 0.00092467,
        "meta_inclination": 98.7393,
        "meta_ra_of_asc_node": 346.7581,
        "meta_arg_of_pericenter": 241.7451,
        "meta_mean_anomaly": 118.2789,
        "meta_ephemeris_type": 0,
        "meta_classification_type": "U",
        "meta_norad_cat_id": 29522,
        "meta_element_set_no": 999,
        "meta_rev_at_epoch": 98527,
        "meta_bstar": 0.00018675577,
        "meta_mean_motion_dot": 3.18e-06,
        "meta_mean_motion_ddot": 0,
        "tle_line1": "1 29522U 06050A   25341.25484107  .00000318  00000+0  18676-3 0  9999",
        "tle_line2": "2 29522  98.7393 346.7581 0009246 241.7451 118.2789 14.14916111985276"
      },
      "geometry": {
        "type": "Point",
        "coordinates": [
          13.989805976506036,
          -70.88309348606164
        ]
      }
    },
    {
      "type": "Feature",
      "properties": {
        "norad_id": 32958,
        "name": "FENGYUN 3A",
        "group": "weather",
        "lat": -72.45819780759251,
        "lon": -49.35865778530751,
        "alt_km": 829.7517781225206,
        "timestamp": "2025-12-08T03:50:06.648467+00:00",
        "meta_object_name": "FENGYUN 3A",
        "meta_object_id": "2008-026A",
        "meta_epoch": "2025-12-07T06:11:39.369984",
        "meta_mean_motion": 14.19511949,
        "meta_eccentricity": 0.00081555,
        "meta_inclination": 98.669,
        "meta_ra_of_asc_node": 280.9005,
        "meta_arg_of_pericenter": 327.575,
        "meta_mean_anomaly": 32.4924,
        "meta_ephemeris_type": 0,
        "meta_classification_type": "U",
        "meta_norad_cat_id": 32958,
        "meta_element_set_no": 999,
        "meta_rev_at_epoch": 90817,
        "meta_bstar": 0.00013489445,
        "meta_mean_motion_dot": 2.41e-06,
        "meta_mean_motion_ddot": 0,
        "tle_line1": "1 32958U 08026A   25341.25809456  .00000241  00000+0  13489-3 0  9991",
        "tle_line2": "2 32958  98.6690 280.9005 0008155 327.5750  32.4924 14.19511949908172"
      },
      "geometry": {
        "type": "Point",
        "coordinates": [
          -49.35865778530751,
          -72.45819780759251
        ]
      }
    },
    {
      "type": "Feature",
      "properties": {
        "norad_id": 35491,
        "name": "GOES 14",
        "group": "weather",
        "lat": -1.0015033141442797,
        "lon": 26.41765801384264,
        "alt_km": 35800.58871174506,
        "timestamp": "2025-12-08T03:50:06.648481+00:00",
        "meta_object_name": "GOES 14",
        "meta_object_id": "2009-033A",
        "meta_epoch": "2025-12-07T07:18:29.919744",
        "meta_mean_motion": 1.00272941,
        "meta_eccentricity": 0.00041472,
        "meta_inclination": 1.1847,
        "meta_ra_of_asc_node": 85.4709,
        "meta_arg_of_pericenter": 153.8136,
        "meta_mean_anomaly": 198.356,
        "meta_ephemeris_type": 0,
        "meta_classification_type": "U",
        "meta_norad_cat_id": 35491,
        "meta_element_set_no": 999,
        "meta_rev_at_epoch": 466,
        "meta_bstar": 0,
        "meta_mean_motion_dot": -6.4e-07,
        "meta_mean_motion_ddot": 0,
        "tle_line1": "1 35491U 09033A   25341.30451296 -.00000064  00000+0  00000+0 0  9991",
        "tle_line2": "2 35491   1.1847  85.4709 0004147 153.8136 198.3560  1.00272941  4665"
      },
      "geometry": {
        "type": "Point",
        "coordinates": [
          26.41765801384264,
          -1.0015033141442797
        ]
      }
    },
    {
      "type": "Feature",
      "properties": {
        "norad_id": 35951,
        "name": "DMSP 5D-3 F18 (USA 210)",
        "group": "weather",
        "lat": 22.614595729704483,
        "lon": 142.31870381530857,
        "alt_km": 841.5434378426753,
        "timestamp": "2025-12-08T03:50:06.648494+00:00",
        "meta_object_name": "DMSP 5D-3 F18 (USA 210)",
        "meta_object_id": "2009-057A",
        "meta_epoch": "2025-12-07T05:01:52.985856",
        "meta_mean_motion": 14.14764117,
        "meta_eccentricity": 0.00121228,
        "meta_inclination": 98.8828,
        "meta_ra_of_asc_node": 317.6383,
        "meta_arg_of_pericenter": 77.1226,
        "meta_mean_anomaly": 283.1301,
        "meta_ephemeris_type": 0,
        "meta_classification_type": "U",
        "meta_norad_cat_id": 35951,
        "meta_element_set_no": 999,
        "meta_rev_at_epoch": 83244,
        "meta_bstar": 0.00025005636,
        "meta_mean_motion_dot": 4.38e-06,
        "meta_mean_motion_ddot": 0,
        "tle_line1": "1 35951U 09057A   25341.20964104  .00000438  00000+0  25006-3 0  9995",
        "tle_line2": "2 35951  98.8828 317.6383 0012122  77.1226 283.1301 14.14764117832447"
      },
      "geometry": {
        "type": "Point",
        "coordinates": [
          142.31870381530857,
          22.614595729704483
        ]
      }
    },
    {
      "type": "Feature",
      "properties": {
        "norad_id": 36411,
        "name": "EWS-G2 (GOES 15)",
        "group": "weather",
        "lat": 0.740166237139944,
        "lon": -163.91760017818007,
        "alt_km": 35774.98920206873,
        "timestamp": "2025-12-08T03:50:06.648508+00:00",
        "meta_object_name": "EWS-G2 (GOES 15)",
        "meta_object_id": "2010-008A",
        "meta_epoch": "2025-12-07T05:22:02.477856",
        "meta_mean_motion": 1.00268273,
        "meta_eccentricity": 0.00060089,
        "meta_inclination": 0.7997,
        "meta_ra_of_asc_node": 86.0673,
        "meta_arg_of_pericenter": 172.1046,
        "meta_mean_anomaly": 320.0453,
        "meta_ephemeris_type": 0,
        "meta_classification_type": "U",
        "meta_norad_cat_id": 36411,
        "meta_element_set_no": 999,
        "meta_rev_at_epoch": 5771,
        "meta_bstar": 0,
        "meta_mean_motion_dot": 4.2e-07,
        "meta_mean_motion_ddot": 0,
        "tle_line1": "1 36411U 10008A   25341.22363979  .00000042  00000+0  00000+0 0  9994",
        "tle_line2": "2 36411   0.7997  86.0673 0006008 172.1046 320.0453  1.00268273 57710"
      },
      "geometry": {
        "type": "Point",
        "coordinates": [
          -163.91760017818007,
          0.740166237139944
        ]
      }
    }
  ]
}